start=new Date('2022-04-02T00:00:00.000Z').valueOf();
sats=[{"MEAN_MOTION_DDOT":"0.0000000000000","SITE":"AFETR","OBJECT_NAME":"STARLINK-2732","GP_ID":"200231010","MEAN_MOTION_DOT":"0.00001218","PERIAPSIS":"546.202","EPOCH":"2022-04-01T11:59:43.007712","RA_OF_ASC_NODE":"97.8913","REV_AT_EPOCH":"4694","ECCENTRICITY":"0.00014250","EPHEMERIS_TYPE":"0","ARG_OF_PERICENTER":"77.1694","RCS_SIZE":"LARGE","ELEMENT_SET_NO":"999","DECAY_DATE":null,"REF_FRAME":"TEME","APOAPSIS":"548.176","BSTAR":"0.00010063000000","COUNTRY_CODE":"US","MEAN_ELEMENT_THEORY":"SGP4","INCLINATION":"53.0551","PERIOD":"95.592","OBJECT_TYPE":"PAYLOAD","FILE":"3383353","OBJECT_ID":"2021-044J","NORAD_CAT_ID":"48646","TLE_LINE2":"2 48646  53.0551  97.8913 0001425  77.1694 282.9454 15.06408037 46943","LAUNCH_DATE":"2021-05-26","TLE_LINE1":"1 48646U 21044J   22091.49980333  .00001218  00000-0  10063-3 0  9997","MEAN_MOTION":"15.06408037","CENTER_NAME":"EARTH","TIME_SYSTEM":"UTC","CLASSIFICATION_TYPE":"U","MEAN_ANOMALY":"282.9454","SEMIMAJOR_AXIS":"6925.324"},{"PERIOD":"95.591","FILE":"3383778","OBJECT_TYPE":"PAYLOAD","NORAD_CAT_ID":"48647","OBJECT_ID":"2021-044K","BSTAR":"0.00030894000000","COUNTRY_CODE":"US","MEAN_ELEMENT_THEORY":"SGP4","INCLINATION":"53.0542","CLASSIFICATION_TYPE":"U","MEAN_ANOMALY":"300.9735","SEMIMAJOR_AXIS":"6925.306","TLE_LINE2":"2 48647  53.0542  96.4406 0001698  59.1421 300.9735 15.06413854 46997","TLE_LINE1":"1 48647U 21044K   22091.82784743  .00004325  00000-0  30894-3 0  9998","LAUNCH_DATE":"2021-05-26","TIME_SYSTEM":"UTC","MEAN_MOTION":"15.06413854","CENTER_NAME":"EARTH","PERIAPSIS":"545.995","MEAN_MOTION_DOT":"0.00004325","REV_AT_EPOCH":"4699","RA_OF_ASC_NODE":"96.4406","EPOCH":"2022-04-01T19:52:06.017952","ARG_OF_PERICENTER":"59.1421","ECCENTRICITY":"0.00016980","EPHEMERIS_TYPE":"0","MEAN_MOTION_DDOT":"0.0000000000000","SITE":"AFETR","OBJECT_NAME":"STARLINK-2691","GP_ID":"200264543","REF_FRAME":"TEME","APOAPSIS":"548.347","ELEMENT_SET_NO":"999","RCS_SIZE":"LARGE","DECAY_DATE":null},{"PERIAPSIS":"546.100","MEAN_MOTION_DOT":"0.00001968","ARG_OF_PERICENTER":"63.7009","EPHEMERIS_TYPE":"0","ECCENTRICITY":"0.00016060","REV_AT_EPOCH":"4691","RA_OF_ASC_NODE":"98.8239","EPOCH":"2022-04-01T07:06:26.408736","SITE":"AFETR","MEAN_MOTION_DDOT":"0.0000000000000","OBJECT_NAME":"STARLINK-2521","GP_ID":"200231512","REF_FRAME":"TEME","APOAPSIS":"548.325","DECAY_DATE":null,"ELEMENT_SET_NO":"999","RCS_SIZE":"LARGE","FILE":"3383353","OBJECT_TYPE":"PAYLOAD","PERIOD":"95.592","NORAD_CAT_ID":"48648","OBJECT_ID":"2021-044L","MEAN_ELEMENT_THEORY":"SGP4","COUNTRY_CODE":"US","BSTAR":"0.00015099000000","INCLINATION":"53.0559","MEAN_ANOMALY":"296.4145","CLASSIFICATION_TYPE":"U","SEMIMAJOR_AXIS":"6925.348","TLE_LINE2":"2 48648  53.0559  98.8239 0001606  63.7009 296.4145 15.06400332 46911","TIME_SYSTEM":"UTC","MEAN_MOTION":"15.06400332","CENTER_NAME":"EARTH","TLE_LINE1":"1 48648U 21044L   22091.29613899  .00001968  00000-0  15099-3 0  9993","LAUNCH_DATE":"2021-05-26"},{"OBJECT_TYPE":"PAYLOAD","FILE":"3383353","PERIOD":"95.592","NORAD_CAT_ID":"48649","OBJECT_ID":"2021-044M","MEAN_ELEMENT_THEORY":"SGP4","BSTAR":"0.00029616000000","COUNTRY_CODE":"US","INCLINATION":"53.0543","MEAN_ANOMALY":"301.1832","CLASSIFICATION_TYPE":"U","SEMIMAJOR_AXIS":"6925.333","TLE_LINE2":"2 48649  53.0543  98.2270 0002067  58.9359 301.1832 15.06404934 46920","MEAN_MOTION":"15.06404934","CENTER_NAME":"EARTH","TIME_SYSTEM":"UTC","LAUNCH_DATE":"2021-05-26","TLE_LINE1":"1 48649U 21044M   22091.42608836  .00004133  00000-0  29616-3 0  9991","MEAN_MOTION_DOT":"0.00004133","PERIAPSIS":"545.767","EPHEMERIS_TYPE":"0","ECCENTRICITY":"0.00020670","ARG_OF_PERICENTER":"58.9359","EPOCH":"2022-04-01T10:13:34.034304","RA_OF_ASC_NODE":"98.2270","REV_AT_EPOCH":"4692","SITE":"AFETR","MEAN_MOTION_DDOT":"0.0000000000000","GP_ID":"200230995","OBJECT_NAME":"STARLINK-2673","REF_FRAME":"TEME","APOAPSIS":"548.630","DECAY_DATE":null,"RCS_SIZE":"LARGE","ELEMENT_SET_NO":"999"},{"INCLINATION":"53.0543","BSTAR":"0.00016890000000","COUNTRY_CODE":"US","MEAN_ELEMENT_THEORY":"SGP4","NORAD_CAT_ID":"48650","OBJECT_ID":"2021-044N","PERIOD":"95.592","FILE":"3383353","OBJECT_TYPE":"PAYLOAD","TLE_LINE1":"1 48650U 21044N   22091.42240508  .00002235  00000-0  16890-3 0  9992","LAUNCH_DATE":"2021-05-26","TIME_SYSTEM":"UTC","MEAN_MOTION":"15.06402124","CENTER_NAME":"EARTH","TLE_LINE2":"2 48650  53.0543  98.2542 0001456  74.4720 285.6430 15.06402124 46929","SEMIMAJOR_AXIS":"6925.342","CLASSIFICATION_TYPE":"U","MEAN_ANOMALY":"285.6430","GP_ID":"200230511","OBJECT_NAME":"STARLINK-2672","MEAN_MOTION_DDOT":"0.0000000000000","SITE":"AFETR","REV_AT_EPOCH":"4692","EPOCH":"2022-04-01T10:08:15.798912","RA_OF_ASC_NODE":"98.2542","ARG_OF_PERICENTER":"74.4720","EPHEMERIS_TYPE":"0","ECCENTRICITY":"0.00014560","MEAN_MOTION_DOT":"0.00002235","PERIAPSIS":"546.199","ELEMENT_SET_NO":"999","RCS_SIZE":"LARGE","DECAY_DATE":null,"APOAPSIS":"548.215","REF_FRAME":"TEME"},{"CLASSIFICATION_TYPE":"U","MEAN_ANOMALY":"294.5758","SEMIMAJOR_AXIS":"6925.304","TLE_LINE2":"2 48651  53.0557  96.7825 0001611  65.5399 294.5758 15.06414487 46970","LAUNCH_DATE":"2021-05-26","TLE_LINE1":"1 48651U 21044P   22091.75044709  .00005745  00000-0  40412-3 0  9990","MEAN_MOTION":"15.06414487","CENTER_NAME":"EARTH","TIME_SYSTEM":"UTC","PERIOD":"95.591","OBJECT_TYPE":"PAYLOAD","FILE":"3383778","NORAD_CAT_ID":"48651","OBJECT_ID":"2021-044P","COUNTRY_CODE":"US","BSTAR":"0.00040412000000","MEAN_ELEMENT_THEORY":"SGP4","INCLINATION":"53.0557","REF_FRAME":"TEME","APOAPSIS":"548.285","RCS_SIZE":"LARGE","ELEMENT_SET_NO":"999","DECAY_DATE":null,"MEAN_MOTION_DOT":"0.00005745","PERIAPSIS":"546.053","EPOCH":"2022-04-01T18:00:38.628576","RA_OF_ASC_NODE":"96.7825","REV_AT_EPOCH":"4697","EPHEMERIS_TYPE":"0","ECCENTRICITY":"0.00016110","ARG_OF_PERICENTER":"65.5399","MEAN_MOTION_DDOT":"0.0000000000000","SITE":"AFETR","OBJECT_NAME":"STARLINK-2731","GP_ID":"200265044"},{"MEAN_ELEMENT_THEORY":"SGP4","BSTAR":"0.00020851000000","COUNTRY_CODE":"US","INCLINATION":"53.0548","OBJECT_TYPE":"PAYLOAD","FILE":"3383778","PERIOD":"95.592","NORAD_CAT_ID":"48652","OBJECT_ID":"2021-044Q","TLE_LINE2":"2 48652  53.0548  96.7969 0001568  70.0016 290.1142 15.06409738 46970","MEAN_MOTION":"15.06409738","CENTER_NAME":"EARTH","TIME_SYSTEM":"UTC","LAUNCH_DATE":"2021-05-26","TLE_LINE1":"1 48652U 21044Q   22091.74675722  .00002826  00000-0  20851-3 0  9997","MEAN_ANOMALY":"290.1142","CLASSIFICATION_TYPE":"U","SEMIMAJOR_AXIS":"6925.319","SITE":"AFETR","MEAN_MOTION_DDOT":"0.0000000000000","GP_ID":"200264793","OBJECT_NAME":"STARLINK-2727","MEAN_MOTION_DOT":"0.00002826","PERIAPSIS":"546.098","ECCENTRICITY":"0.00015680","EPHEMERIS_TYPE":"0","ARG_OF_PERICENTER":"70.0016","EPOCH":"2022-04-01T17:55:19.823808","RA_OF_ASC_NODE":"96.7969","REV_AT_EPOCH":"4697","DECAY_DATE":null,"RCS_SIZE":"LARGE","ELEMENT_SET_NO":"999","REF_FRAME":"TEME","APOAPSIS":"548.270"},{"PERIAPSIS":"546.100","MEAN_MOTION_DOT":"0.00004287","ARG_OF_PERICENTER":"58.6785","EPHEMERIS_TYPE":"0","ECCENTRICITY":"0.00015640","REV_AT_EPOCH":"4697","RA_OF_ASC_NODE":"96.8100","EPOCH":"2022-04-01T17:50:01.572864","SITE":"AFETR","MEAN_MOTION_DDOT":"0.0000000000000","OBJECT_NAME":"STARLINK-2720","GP_ID":"200266046","REF_FRAME":"TEME","APOAPSIS":"548.266","DECAY_DATE":null,"ELEMENT_SET_NO":"999","RCS_SIZE":"LARGE","FILE":"3383778","OBJECT_TYPE":"PAYLOAD","PERIOD":"95.591","NORAD_CAT_ID":"48653","OBJECT_ID":"2021-044R","MEAN_ELEMENT_THEORY":"SGP4","COUNTRY_CODE":"US","BSTAR":"0.00030642000000","INCLINATION":"53.0540","MEAN_ANOMALY":"301.4357","CLASSIFICATION_TYPE":"U","SEMIMAJOR_AXIS":"6925.318","TLE_LINE2":"2 48653  53.0540  96.8100 0001564  58.6785 301.4357 15.06410093 46972","TIME_SYSTEM":"UTC","MEAN_MOTION":"15.06410093","CENTER_NAME":"EARTH","TLE_LINE1":"1 48653U 21044R   22091.74307376  .00004287  00000-0  30642-3 0  9997","LAUNCH_DATE":"2021-05-26"},{"TLE_LINE2":"2 48654  53.0535  96.8302 0001443  71.8090 288.3056 15.06415172 46975","LAUNCH_DATE":"2021-05-26","TLE_LINE1":"1 48654U 21044S   22091.73938820  .00005103  00000-0  36107-3 0  9991","MEAN_MOTION":"15.06415172","CENTER_NAME":"EARTH","TIME_SYSTEM":"UTC","CLASSIFICATION_TYPE":"U","MEAN_ANOMALY":"288.3056","SEMIMAJOR_AXIS":"6925.302","COUNTRY_CODE":"US","BSTAR":"0.00036107000000","MEAN_ELEMENT_THEORY":"SGP4","INCLINATION":"53.0535","PERIOD":"95.591","OBJECT_TYPE":"PAYLOAD","FILE":"3383778","NORAD_CAT_ID":"48654","OBJECT_ID":"2021-044S","RCS_SIZE":"LARGE","ELEMENT_SET_NO":"999","DECAY_DATE":null,"REF_FRAME":"TEME","APOAPSIS":"548.166","MEAN_MOTION_DDOT":"0.0000000000000","SITE":"AFETR","GP_ID":"200265036","OBJECT_NAME":"STARLINK-2651","PERIAPSIS":"546.168","MEAN_MOTION_DOT":"0.00005103","RA_OF_ASC_NODE":"96.8302","EPOCH":"2022-04-01T17:44:43.140480","REV_AT_EPOCH":"4697","EPHEMERIS_TYPE":"0","ECCENTRICITY":"0.00014430","ARG_OF_PERICENTER":"71.8090"},{"PERIAPSIS":"546.222","MEAN_MOTION_DOT":"0.00003224","EPOCH":"2022-04-01T17:39:24.818688","RA_OF_ASC_NODE":"96.8554","REV_AT_EPOCH":"4697","ECCENTRICITY":"0.00013980","EPHEMERIS_TYPE":"0","ARG_OF_PERICENTER":"66.9891","MEAN_MOTION_DDOT":"0.0000000000000","SITE":"AFETR","GP_ID":"200264544","OBJECT_NAME":"STARLINK-2657","REF_FRAME":"TEME","APOAPSIS":"548.158","RCS_SIZE":"LARGE","ELEMENT_SET_NO":"999","DECAY_DATE":null,"PERIOD":"95.592","OBJECT_TYPE":"PAYLOAD","FILE":"3383778","OBJECT_ID":"2021-044T","NORAD_CAT_ID":"48655","BSTAR":"0.00023517000000","COUNTRY_CODE":"US","MEAN_ELEMENT_THEORY":"SGP4","INCLINATION":"53.0543","CLASSIFICATION_TYPE":"U","MEAN_ANOMALY":"293.1245","SEMIMAJOR_AXIS":"6925.325","TLE_LINE2":"2 48655  53.0543  96.8554 0001398  66.9891 293.1245 15.06407690 46977","LAUNCH_DATE":"2021-05-26","TLE_LINE1":"1 48655U 21044T   22091.73570392  .00003224  00000-0  23517-3 0  9991","MEAN_MOTION":"15.06407690","CENTER_NAME":"EARTH","TIME_SYSTEM":"UTC"}];
